NORAD_CAT_ID,OBJECT_NAME,OBJECT_TYPE,EPOCH,MEAN_MOTION,ECCENTRICITY,INCLINATION,RA_OF_ASC_NODE,ARG_OF_PERICENTER,MEAN_ANOMALY,BSTAR,MEAN_MOTION_DOT,MEAN_MOTION_DDOT,TLE_LINE0,TLE_LINE1,TLE_LINE2,SEMIMAJOR_AXIS,PERIOD,APOGEE,PERIGEE,DECAYED
52474.0,STARLINK-3855,PAYLOAD,2023-02-23 05:02:24,15.08831429,0.0001073,53.2172,354.2609,79.2233,280.888,0.0002309,3.388e-05,0.0,0 STARLINK-3855,1 52474U 22049Z   23054.21001147  .00003388  00000-0  23090-3 0  9998,2 52474  53.2172 354.2609 0001073  79.2233 280.8880 15.08831429 44902,6917.907,95.438,540.514,539.029,0.0
52474.0,STARLINK-3855,PAYLOAD,2023-02-24 04:53:11,15.08870012,0.0001028,53.2165,349.8003,73.8285,286.282,0.0013342,0.00021027,0.0,0 STARLINK-3855,1 52474U 22049Z   23055.20360610  .00021027  00000-0  13342-2 0  9999,2 52474  53.2165 349.8003 0001028  73.8285 286.2820 15.08870012 45051,6917.789,95.436,540.365,538.943,0.0
52474.0,STARLINK-3855,PAYLOAD,2023-02-24 22:22:26,15.08847609,0.000113,53.217,346.5293,69.5221,290.5892,0.00040471,6.16e-05,0.0,0 STARLINK-3855,1 52474U 22049Z   23055.93225032  .00006160  00000-0  40471-3 0  9992,2 52474  53.2170 346.5293 0001130  69.5221 290.5892 15.08847609 45163,6917.857,95.437,540.504,538.94,0.0
52474.0,STARLINK-3855,PAYLOAD,2023-02-25 04:43:58,15.08845497,9.33e-05,53.2166,345.3408,84.4809,275.629,0.0010646,0.00016698,0.0,0 STARLINK-3855,1 52474U 22049Z   23056.19721030  .00016698  00000-0  10646-2 0  9997,2 52474  53.2166 345.3408 0000933  84.4809 275.6290 15.08845497 45047,6917.864,95.437,540.374,539.083,0.0
52474.0,STARLINK-3855,PAYLOAD,2023-02-26 04:34:46,15.08848323,0.0001182,53.2166,340.8776,91.5575,268.5552,0.00081722,0.00012745,0.0,0 STARLINK-3855,1 52474U 22049Z   23057.19081198  .00012745  00000-0  81722-3 0  9995,2 52474  53.2166 340.8776 0001182  91.5575 268.5552 15.08848323 45358,6917.855,95.437,540.538,538.902,0.0
52474.0,STARLINK-3855,PAYLOAD,2023-02-27 04:25:31,15.08880307,0.0001431,53.217,336.415,100.435,259.6803,0.0010447,0.00016396,0.0,0 STARLINK-3855,1 52474U 22049Z   23058.18439778  .00016396  00000-0  10447-2 0  9997,2 52474  53.2170 336.4150 0001431 100.4350 259.6803 15.08880307 45345,6917.757,95.435,540.612,538.632,0.0
52474.0,STARLINK-3855,PAYLOAD,2023-02-27 18:43:59,15.08873499,0.0001025,53.2167,333.7407,98.6147,261.4961,0.0010228,0.00016042,0.0,0 STARLINK-3855,1 52474U 22049Z   23058.78055307  .00016042  00000-0  10228-2 0  9990,2 52474  53.2167 333.7407 0001025  98.6147 261.4961 15.08873499 45594,6917.778,95.435,540.352,538.934,0.0
52474.0,STARLINK-3855,PAYLOAD,2023-02-28 04:16:17,15.08912853,0.0001165,53.2165,331.9578,95.455,264.6575,0.003231,0.00051613,0.0,0 STARLINK-3855,1 52474U 22049Z   23059.17798190  .00051613  00000-0  32310-2 0  9997,2 52474  53.2165 331.9578 0001165  95.4550 264.6575 15.08912853 45650,6917.658,95.433,540.329,538.717,0.0
52474.0,STARLINK-3855,PAYLOAD,2023-02-28 21:45:35,15.08787322,9.04e-05,53.2175,328.6867,101.7291,258.3803,0.00050179,7.696e-05,0.0,0 STARLINK-3855,1 52474U 22049Z   23059.90665551  .00007696  00000-0  50179-3 0  9998,2 52474  53.2175 328.6867 0000904 101.7291 258.3803 15.08787322 45608,6918.041,95.441,540.532,539.281,0.0
52474.0,STARLINK-3855,PAYLOAD,2023-02-28 23:20:58,15.0877429,9.21e-05,53.2171,328.3891,90.4398,269.67,0.00029697,4.433e-05,0.0,0 STARLINK-3855,1 52474U 22049Z   23059.97289926  .00004433  00000-0  29697-3 0  9990,2 52474  53.2171 328.3891 0000921  90.4398 269.6700 15.08774290 45778,6918.081,95.442,540.583,539.309,0.0
52474.0,STARLINK-3855,PAYLOAD,2023-03-01 05:42:32,15.08773111,0.00011,53.2172,327.2002,101.621,258.4906,0.0016895,0.00026653,0.0,0 STARLINK-3855,1 52474U 22049Z   23060.23787358  .00026653  00000-0  16895-2 0  9996,2 52474  53.2172 327.2002 0001100 101.6210 258.4906 15.08773111 45819,6918.085,95.442,540.711,539.189,0.0
52474.0,STARLINK-3855,PAYLOAD,2023-03-01 21:36:22,15.08861673,0.0002104,53.2165,324.2237,151.6308,208.4799,0.0017876,0.00028294,0.0,0 STARLINK-3855,1 52474U 22049Z   23060.90026565  .00028294  00000-0  17876-2 0  9999,2 52474  53.2165 324.2237 0002104 151.6308 208.4799 15.08861673 45755,6917.814,95.436,541.135,538.224,0.0
52474.0,STARLINK-3855,PAYLOAD,2023-03-02 02:22:32,15.08889818,0.0001189,53.2166,323.3347,126.6406,233.4695,0.0025777,0.00041031,0.0,0 STARLINK-3855,1 52474U 22049Z   23061.09898259  .00041031  00000-0  25777-2 0  9990,2 52474  53.2166 323.3347 0001189 126.6406 233.4695 15.08889818 45946,6917.728,95.434,540.416,538.771,0.0
52474.0,STARLINK-3855,PAYLOAD,2023-03-02 18:16:22,15.08885531,7.82e-05,53.2165,320.3617,92.2016,267.9066,0.00092826,0.00014535,0.0,0 STARLINK-3855,1 52474U 22049Z   23061.76137401  .00014535  00000-0  92826-3 0  9998,2 52474  53.2165 320.3617 0000782  92.2016 267.9066 15.08885531 45880,6917.741,95.435,540.147,539.065,0.0
52474.0,STARLINK-3855,PAYLOAD,2023-03-03 03:48:41,15.08879423,8.61e-05,53.2163,318.5772,104.2631,255.8457,0.0018012,0.00028525,0.0,0 STARLINK-3855,1 52474U 22049Z   23062.15881036  .00028525  00000-0  18012-2 0  9990,2 52474  53.2163 318.5772 0000861 104.2631 255.8457 15.08879423 46103,6917.76,95.435,540.221,539.029,0.0
52474.0,STARLINK-3855,PAYLOAD,2023-03-03 21:17:55,15.08869639,0.0001118,53.2178,315.3054,58.1937,301.9164,0.0018645,0.00029534,0.0,0 STARLINK-3855,1 52474U 22049Z   23062.88744949  .00029534  00000-0  18645-2 0  9994,2 52474  53.2178 315.3054 0001118  58.1937 301.9164 15.08869639 46059,6917.79,95.436,540.428,538.881,0.0
52474.0,STARLINK-3855,PAYLOAD,2023-03-03 22:53:18,15.08866853,0.0001429,53.2172,315.0066,98.6497,261.4657,0.0012814,0.00020179,0.0,0 STARLINK-3855,1 52474U 22049Z   23062.95368702  .00020179  00000-0  12814-2 0  9999,2 52474  53.2172 315.0066 0001429  98.6497 261.4657 15.08866853 46229,6917.798,95.436,540.652,538.675,0.0
52474.0,STARLINK-3855,PAYLOAD,2023-03-04 02:04:04,15.08887726,0.0001187,53.2171,314.4138,79.8989,280.2137,0.0024104,0.00038333,0.0,0 STARLINK-3855,1 52474U 22049Z   23063.08616342  .00038333  00000-0  24104-2 0  9996,2 52474  53.2171 314.4138 0001187  79.8989 280.2137 15.08887726 46245,6917.735,95.435,540.421,538.778,0.0
52474.0,STARLINK-3855,PAYLOAD,2023-03-04 22:44:06,15.0884408,0.0002269,53.2168,310.5479,79.1056,281.0191,0.0018645,0.00029514,0.0,0 STARLINK-3855,1 52474U 22049Z   23063.94729975  .00029514  00000-0  18645-2 0  9992,2 52474  53.2168 310.5479 0002269  79.1056 281.0191 15.08844080 46375,6917.868,95.437,541.303,538.163,0.0
52474.0,STARLINK-3855,PAYLOAD,2023-03-05 00:19:29,15.08842672,0.0001118,53.2167,310.2506,53.4165,306.693,0.0021204,0.00033622,0.0,0 STARLINK-3855,1 52474U 22049Z   23064.01354045  .00033622  00000-0  21204-2 0  9993,2 52474  53.2167 310.2506 0001118  53.4165 306.6930 15.08842672 46224,6917.872,95.437,540.511,538.964,0.0
52474.0,STARLINK-3855,PAYLOAD,2023-03-05 22:34:54,15.08846446,0.0001203,53.2171,306.0875,57.11,303.0007,0.0024832,0.00039461,0.0,0 STARLINK-3855,1 52474U 22049Z   23064.94090374  .00039461  00000-0  24832-2 0  9994,2 52474  53.2171 306.0875 0001203  57.1100 303.0007 15.08846446 46528,6917.861,95.437,540.558,538.893,0.0
52474.0,STARLINK-3855,PAYLOAD,2023-03-06 01:45:39,15.08872345,0.000139,53.216,305.4928,61.803,298.3102,0.0019126,0.00030309,0.0,0 STARLINK-3855,1 52474U 22049Z   23065.07337929  .00030309  00000-0  19126-2 0  9991,2 52474  53.2160 305.4928 0001390  61.8030 298.3102 15.08872345 46540,6917.782,95.436,540.608,538.685,0.0
52474.0,STARLINK-3855,PAYLOAD,2023-03-06 16:04:08,15.08845181,0.0001091,53.2168,302.8186,46.8594,313.2489,0.00067828,0.00010525,0.0,0 STARLINK-3855,1 52474U 22049Z   23065.66954178  .00010525  00000-0  67828-3 0  9998,2 52474  53.2168 302.8186 0001091  46.8594 313.2489 15.08845181 46634,6917.865,95.437,540.484,538.975,0.0
52474.0,STARLINK-3855,PAYLOAD,2023-03-06 22:25:40,15.08846782,8.09e-05,53.2165,301.6285,70.3378,289.7702,0.0011859,0.00018639,0.0,0 STARLINK-3855,1 52474U 22049Z   23065.93450040  .00018639  00000-0  11859-2 0  9993,2 52474  53.2165 301.6285 0000809  70.3378 289.7702 15.08846782 46516,6917.86,95.437,540.284,539.165,0.0
52474.0,STARLINK-3855,PAYLOAD,2023-03-07 15:54:55,15.08845155,0.0002031,53.2157,298.355,84.1519,275.9704,0.0008961,0.00014004,0.0,0 STARLINK-3855,1 52474U 22049Z   23066.66314256  .00014004  00000-0  89610-3 0  9995,2 52474  53.2157 298.3550 0002031  84.1519 275.9704 15.08845155 46784,6917.865,95.437,541.135,538.325,0.0
52474.0,STARLINK-3855,PAYLOAD,2023-03-07 22:16:27,15.08860368,0.0002294,53.2153,297.1655,93.6625,266.463,0.0013113,0.00020655,0.0,0 STARLINK-3855,1 52474U 22049Z   23066.92810022  .00020655  00000-0  13113-2 0  9999,2 52474  53.2153 297.1655 0002294  93.6625 266.4630 15.08860368 46660,6917.818,95.436,541.27,538.096,0.0
52474.0,STARLINK-3855,PAYLOAD,2023-03-08 15:45:42,15.08849414,0.0002543,53.2144,293.8953,97.8026,262.3255,0.0017672,0.00027957,0.0,0 STARLINK-3855,1 52474U 22049Z   23067.65674551  .00027957  00000-0  17672-2 0  9991,2 52474  53.2144 293.8953 0002543  97.8026 262.3255 15.08849414 46939,6917.852,95.437,541.476,537.957,0.0
52474.0,STARLINK-3855,PAYLOAD,2023-03-08 22:07:15,15.08840738,9.97e-05,53.2161,292.7068,77.6791,282.4312,0.0017533,0.00027726,0.0,0 STARLINK-3855,1 52474U 22049Z   23067.92170836  .00027726  00000-0  17533-2 0  9998,2 52474  53.2161 292.7068 0000997  77.6791 282.4312 15.08840738 46970,6917.878,95.438,540.433,539.053,0.0
52474.0,STARLINK-3855,PAYLOAD,2023-03-09 18:47:16,15.08846484,0.0001599,53.2136,288.8409,102.7482,257.3689,0.00062303,9.643e-05,0.0,0 STARLINK-3855,1 52474U 22049Z   23068.78282730  .00009643  00000-0  62303-3 0  9994,2 52474  53.2136 288.8409 0001599 102.7482 257.3689 15.08846484 47101,6917.861,95.437,540.832,538.619,0.0
52474.0,STARLINK-3855,PAYLOAD,2023-03-09 21:58:02,15.08855008,0.0001132,53.2148,288.2473,86.8485,273.2637,0.00087627,0.00013691,0.0,0 STARLINK-3855,1 52474U 22049Z   23068.91530614  .00013691  00000-0  87627-3 0  9990,2 52474  53.2148 288.2473 0001132  86.8485 273.2637 15.08855008 46962,6917.835,95.437,540.483,538.916,0.0
